CUTE-1 (CO-55)          
1 27844U 03031E   25279.00202286  .00000614  00000+0  28580-3 0  9993
2 27844  98.6790 285.7696 0009189 197.3727 162.7138 14.24095858155490
CUBESAT XI-IV (CO-57)   
1 27848U 03031J   25279.00622284  .00000519  00000+0  24769-3 0  9990
2 27848  98.6821 285.6891 0008759 216.0302 144.0287 14.23416409155211
CUBESAT XI-V            
1 28895U 05043F   25279.47169207  .00002674  00000+0  43882-3 0  9991
2 28895  98.2665  65.4552 0013355 291.7944  68.1841 14.71485064 64424
CUTE-1.7+APD II (CO-65) 
1 32785U 08021C   25279.48421647  .00007620  00000+0  52902-3 0  9992
2 32785  97.7984 251.7119 0010048 159.6960 200.4668 15.05818103946968
CANX-2                  
1 32790U 08021H   25279.47271486  .00006603  00000+0  49716-3 0  9990
2 32790  97.8332 250.2797 0010950 174.1313 186.0042 15.02811213946668
SEEDS II (CO-66)        
1 32791U 08021J   25279.39114317  .00016788  00000+0  73486-3 0  9997
2 32791  97.7388 262.4018 0006293 107.3047 252.8877 15.22102980948540
SWISSCUBE               
1 35932U 09051B   25279.28017690  .00001959  00000+0  40350-3 0  9993
2 35932  98.4147 177.6651 0005587 288.9600  71.0995 14.61661497852054
BEESAT-1                
1 35933U 09051C   25279.50916606  .00001673  00000+0  35085-3 0  9996
2 35933  98.4077 178.0370 0004271 307.0171  53.0637 14.61027020852135
ITUPSAT1                
1 35935U 09051E   25279.28189777  .00001508  00000+0  32566-3 0  9992
2 35935  98.4170 177.2465 0006642 315.1371  44.9290 14.59802289851681
TISAT 1                 
1 36799U 10035E   25279.50837730  .00019653  00000+0  91225-3 0  9996
2 36799  98.0534 201.1722 0005455  69.7140 290.4680 15.20063269829019
AEROCUBE 4.5A           
1 38767U 12048K   25279.46679980  .00037728  00000+0  81126-3 0  9997
2 38767  64.6456 187.3993 0086446 246.1569 113.0489 15.40491668333082
STRAND-1                
1 39090U 13009E   25279.47513726  .00000603  00000+0  21811-3 0  9998
2 39090  98.3852 101.0878 0007559 269.9052  90.1268 14.36918575660627
BRITE-AUSTRIA           
1 39091U 13009F   25279.45413009  .00000386  00000+0  14652-3 0  9993
2 39091  98.3914 100.3052 0009073 279.1589  80.8571 14.36377660660621
NEE-01 PEGASO           
1 39151U 13018B   25279.42423399  .00004165  00000+0  42010-3 0  9998
2 39151  98.0889  51.0962 0012217 280.3822  79.6018 14.91632062672846
POPACS 1                
1 39268U 13055D   25279.31747378  .00097298  17853-5  58346-3 0  9990
2 39268  80.9585 298.5757 0174551 288.1980  70.0338 15.59287749633007
POPACS 2                
1 39269U 13055E   25278.41680102  .00015449  00000+0  29526-3 0  9998
2 39269  80.9935  73.5844 0460304 286.2800  68.8255 14.79727149625377
POPACS 3                
1 39270U 13055F   25279.05352911  .00012607  00000+0  31070-3 0  9995
2 39270  81.0027 143.5655 0575480 120.8799 245.0304 14.50259938601646
ZACUBE-1 (TSHEPISOSAT)  
1 39417U 13066B   25279.41790403  .00007869  00000+0  65951-3 0  9991
2 39417  97.7923 235.9615 0043291  17.5421 342.7284 14.97940879642698
WNISAT-1                
1 39423U 13066H   25279.45283138  .00001252  00000+0  23934-3 0  9999
2 39423  97.6899  82.2340 0163786 311.4354  47.2871 14.57360313629764
TRITON-1                
1 39427U 13066M   25279.51392911  .00005361  00000+0  66780-3 0  9991
2 39427  97.8285 190.2678 0092684 341.3720  18.4107 14.79851481636541
GOMX-1                  
1 39430U 13066Q   25279.57542102  .00003087  00000+0  47845-3 0  9994
2 39430  97.6681 130.8965 0131395 170.7814 189.5851 14.68158903632687
CUBEBUG-2 (LO-74)       
1 39440U 13066AA  25279.37992147  .00005133  00000+0  50706-3 0  9995
2 39440  97.8587 223.2366 0061772 146.3341 214.1825 14.90947309639136
NEE-02 KRYSAOR          
1 39441U 13066AB  25279.34092319  .00002613  00000+0  30033-3 0  9996
2 39441  97.8625 216.0115 0067976 180.1577 179.9628 14.85013040638500
FUNCUBE-1 (AO-73)       
1 39444U 13066AE  25279.50993966  .00012482  00000+0  88466-3 0  9993
2 39444  97.7960 242.0836 0039845 347.8951  12.1313 15.04286321641458
UWE-3                   
1 39446U 13066AG  25279.40246215  .00006382  00000+0  58691-3 0  9991
2 39446  97.8353 229.8067 0054046  84.9266 275.8119 14.94005637639641
BRITE-CA1 (TORONTO)     
1 40020U 14033L   25279.41473757  .00001422  00000+0  22388-3 0  9994
2 40020  97.9422  48.6707 0079811  10.2782 350.0034 14.71934283604871
DUCHIFAT-1              
1 40021U 14033M   25279.47736089  .00030626  00000+0  91457-3 0  9992
2 40021  98.0893 304.5853 0005489 254.1937 105.8699 15.34550019616511
NANOSATC-BR1            
1 40024U 14033Q   25279.51835852  .00017216  00000+0  76322-3 0  9992
2 40024  98.0936 285.9894 0004199  17.7965 342.3415 15.21679804615276
QB50P1                  
1 40025U 14033R   25279.51653031  .00011781  00000+0  67701-3 0  9992
2 40025  98.0936 268.9508 0010583  24.6358 335.5374 15.12624931614602
QB50P2                  
1 40032U 14033Y   25279.46431083  .00009797  00000+0  60310-3 0  9998
2 40032  98.0565 256.7407 0006870 334.4322  25.6565 15.10208737614304
PERSEUS-M2              
1 40037U 14033AD  25279.52393434  .00003934  00000+0  37165-3 0  9996
2 40037  97.9638 220.6131 0013825  64.4140 295.8506 14.94244438612884
PERSEUS-M1              
1 40039U 14033AF  25279.37630972  .00003941  00000+0  37209-3 0  9999
2 40039  97.9350 215.0074 0013642  63.6715 296.5904 14.94266024612714
POLYITAN-1              
1 40042U 14033AJ  25279.44699139  .00018224  00000+0  79194-3 0  9990
2 40042  98.1092 278.5867 0007075 324.9482  35.1286 15.22335917614841
TIGRISAT                
1 40043U 14033AK  25279.47134169  .00003744  00000+0  45049-3 0  9994
2 40043  97.7513  71.0794 0050658 185.4448 174.6222 14.83590396607983
AEROCUBE 6A             
1 40045U 14033AM  25279.43138774  .00008415  00000+0  78229-3 0  9994
2 40045  97.7041  85.1338 0042192 143.0312 217.3828 14.93912345608672
AEROCUBE 6B             
1 40046U 14033AN  25279.46392005  .00009169  00000+0  82588-3 0  9997
2 40046  97.7004  84.4814 0040965 135.9613 224.4883 14.95165218608786
CANX-4                  
1 40055U 14034C   25279.37778039  .00001671  00000+0  22536-3 0  9990
2 40055  98.3448 139.9282 0014230 104.6201 255.6588 14.80517223606969
CANX-5                  
1 40056U 14034D   25279.51420025  .00001754  00000+0  23609-3 0  9990
2 40056  98.3448 140.0987 0014227 104.4755 255.8036 14.80533708597799
UKUBE-1                 
1 40074U 14037F   25279.46912014  .00012678  00000+0  83402-3 0  9995
2 40074  98.4068 252.4168 0001271  49.7527 310.3809 15.07724956610248
BRITE-PL2 (HEWELIUSZ)   
1 40119U 14049B   25279.53057087  .00003200  00000+0  31174-3 0  9996
2 40119  97.8975  25.0970 0013419 227.1161 132.8932 14.93155274603573
AEROCUBE 5C             
1 40965U 15058B   25279.42751627  .00004143  00000+0  36882-3 0  9993
2 40965  64.7694 330.9591 0146806 160.7285 199.9462 14.89525492327838
AEROCUBE 7              
1 40966U 15058C   25279.49137779  .00005146  00000+0  42317-3 0  9991
2 40966  64.7638 317.9689 0137590 160.6004 200.0421 14.93098959328049
FOX-1A (AO-85)          
1 40967U 15058D   25279.45800133  .00004604  00000+0  41741-3 0  9997
2 40967  64.7779 346.4086 0143243 155.0209 205.7926 14.89031352 75760
SINOD-D 1               
1 40968U 15058E   25279.49370280  .00005297  00000+0  44036-3 0  9996
2 40968  64.7773 331.8480 0132040 153.6474 207.1438 14.93192569 78740
SNAP-3 ALICE            
1 40970U 15058G   25279.29057366  .00031712  00000+0  11233-2 0  9997
2 40970  64.7620 236.9896 0059634 154.0044 206.4103 15.27283541 77755
LMRST-SAT               
1 40971U 15058H   25279.48646404  .00004312  00000+0  39263-3 0  9996
2 40971  64.7782 342.2099 0145826 156.6509 204.1316 14.88710428 75769
SNAP-3 EDDIE            
1 40972U 15058J   25279.30162851  .00032934  00000+0  11366-2 0  9991
2 40972  64.7548 229.1109 0064143 156.8921 203.5118 15.27842441 79871
PROPCUBE 3              
1 40973U 15058K   25279.50761691  .00004511  00000+0  38290-3 0  9997
2 40973  64.7705 323.8134 0139647 158.7134 201.9869 14.91905767 76925
BISONSAT                
1 40974U 15058L   25279.31584617  .00010772  00000+0  61881-3 0  9996
2 40974  64.7606 270.1263 0098697 156.6841 203.8804 15.08820879 77216
SNAP-3 JIMI             
1 40975U 15058M   25279.40585590  .00006005  00000+0  44042-3 0  9992
2 40975  64.7658 300.5919 0122861 157.6901 202.9626 14.98522999 76142
PROPCUBE 1 (FLORA)      
1 40976U 15058N   25279.48297156  .00004985  00000+0  46774-3 0  9998
2 40976  64.7778   0.5222 0145340 158.6505 202.0756 14.87405615 78508
SINOD-D 3               
1 40977U 15058P   25279.48294507  .00005882  00000+0  50711-3 0  9999
2 40977  64.7752 346.6325 0134313 157.7765 202.9246 14.91477894 76880
HORYU-4                 
1 41340U 16012D   25279.51252905  .00040883  00000+0  87747-3 0  9994
2 41340  30.9959  48.9516 0003659 218.9220 141.1164 15.43457322531136
RAVAN                   
1 41849U 16067B   25279.52335061  .00024507  00000+0  73365-3 0  9990
2 41849  98.0273 138.5841 0008154 168.9392 191.2030 15.34503075488552
CELTEE 1                
1 41850U 16067C   25279.50192657  .00006772  00000+0  35618-3 0  9995
2 41850  98.0963 123.8814 0002211  61.7570 298.3884 15.16023051487391
OPTICUBE 04             
1 41851U 16067D   25279.49684091  .00004486  00000+0  29580-3 0  9993
2 41851  98.0890 113.4432 0015048 254.2965 105.6601 15.07954954486910
AEROCUBE 8D             
1 41852U 16067E   25279.54301086  .00008784  00000+0  41793-3 0  9995
2 41852  98.0984 125.7631 0002626 304.2970  55.8014 15.19440950487488
AEROCUBE 8C             
1 41853U 16067F   25279.53746630  .00008932  00000+0  42275-3 0  9994
2 41853  98.0844 123.3464 0005039 205.1631 154.9357 15.19608381487470
PROMETHEUS 2-1          
1 41854U 16067G   25279.17281231  .00132219  00000+0  13181-2 0  9995
2 41854  98.0537 147.5000 0005532 149.7893 210.3685 15.65221243488836
